{
  "type": "FeatureCollection",
  "features": [
    {
      "type": "Feature",
      "properties": {
        "norad_id": 34036,
        "name": "COSMOS 2251 DEB",
        "group": "cosmos-2251-debris",
        "lat": 8.038551871539932,
        "lon": -11.940639764386733,
        "alt_km": 579.211127642986,
        "timestamp": "2025-12-02T06:27:53.404970+00:00",
        "meta_object_name": "COSMOS 2251 DEB",
        "meta_object_id": "1993-036HX",
        "meta_epoch": "2025-11-30T23:09:20.036736",
        "meta_mean_motion": 14.93557713,
        "meta_eccentricity": 0.00153307,
        "meta_inclination": 74.0215,
        "meta_ra_of_asc_node": 173.0047,
        "meta_arg_of_pericenter": 207.7863,
        "meta_mean_anomaly": 152.2504,
        "meta_ephemeris_type": 0,
        "meta_classification_type": "U",
        "meta_norad_cat_id": 34036,
        "meta_element_set_no": 999,
        "meta_rev_at_epoch": 88394,
        "meta_bstar": 0.0033859171,
        "meta_mean_motion_dot": 0.00035932,
        "meta_mean_motion_ddot": 0,
        "tle_line1": "1 34036U 93036HX  25334.96481524  .00035932  00000+0  33859-2 0  9994",
        "tle_line2": "2 34036  74.0215 173.0047 0015330 207.7863 152.2504 14.93557713883940"
      },
      "geometry": {
        "type": "Point",
        "coordinates": [
          -11.940639764386733,
          8.038551871539932
        ]
      }
    },
    {
      "type": "Feature",
      "properties": {
        "norad_id": 34037,
        "name": "COSMOS 2251 DEB",
        "group": "cosmos-2251-debris",
        "lat": -39.93101114632522,
        "lon": 55.755772018970994,
        "alt_km": 818.7274321387595,
        "timestamp": "2025-12-02T06:27:53.404980+00:00",
        "meta_object_name": "COSMOS 2251 DEB",
        "meta_object_id": "1993-036HY",
        "meta_epoch": "2025-12-01T17:16:20.794368",
        "meta_mean_motion": 14.3461163,
        "meta_eccentricity": 0.0052541,
        "meta_inclination": 74.0515,
        "meta_ra_of_asc_node": 70.6101,
        "meta_arg_of_pericenter": 123.9302,
        "meta_mean_anomaly": 236.6862,
        "meta_ephemeris_type": 0,
        "meta_classification_type": "U",
        "meta_norad_cat_id": 34037,
        "meta_element_set_no": 999,
        "meta_rev_at_epoch": 87559,
        "meta_bstar": 0.000596,
        "meta_mean_motion_dot": 1.685e-05,
        "meta_mean_motion_ddot": 0,
        "tle_line1": "1 34037U 93036HY  25335.71968512  .00001685  00000+0  59600-3 0  9997",
        "tle_line2": "2 34037  74.0515  70.6101 0052541 123.9302 236.6862 14.34611630875599"
      },
      "geometry": {
        "type": "Point",
        "coordinates": [
          55.755772018970994,
          -39.93101114632522
        ]
      }
    },
    {
      "type": "Feature",
      "properties": {
        "norad_id": 34040,
        "name": "COSMOS 2251 DEB",
        "group": "cosmos-2251-debris",
        "lat": -6.112825508398934,
        "lon": -95.0707775325515,
        "alt_km": 1219.7798314134225,
        "timestamp": "2025-12-02T06:27:53.404990+00:00",
        "meta_object_name": "COSMOS 2251 DEB",
        "meta_object_id": "1993-036JB",
        "meta_epoch": "2025-12-01T15:32:36.382848",
        "meta_mean_motion": 13.68357292,
        "meta_eccentricity": 0.03427998,
        "meta_inclination": 73.9552,
        "meta_ra_of_asc_node": 84.1901,
        "meta_arg_of_pericenter": 39.8659,
        "meta_mean_anomaly": 322.71,
        "meta_ephemeris_type": 0,
        "meta_classification_type": "U",
        "meta_norad_cat_id": 34040,
        "meta_element_set_no": 999,
        "meta_rev_at_epoch": 83448,
        "meta_bstar": 0.0003473683,
        "meta_mean_motion_dot": 4.26e-06,
        "meta_mean_motion_ddot": 0,
        "tle_line1": "1 34040U 93036JB  25335.64764332  .00000426  00000+0  34737-3 0  9993",
        "tle_line2": "2 34040  73.9552  84.1901 0342799  39.8659 322.7100 13.68357292834489"
      },
      "geometry": {
        "type": "Point",
        "coordinates": [
          -95.0707775325515,
          -6.112825508398934
        ]
      }
    },
    {
      "type": "Feature",
      "properties": {
        "norad_id": 34045,
        "name": "COSMOS 2251 DEB",
        "group": "cosmos-2251-debris",
        "lat": 23.494420859408923,
        "lon": -22.861860973395917,
        "alt_km": 761.9903162166484,
        "timestamp": "2025-12-02T06:27:53.405000+00:00",
        "meta_object_name": "COSMOS 2251 DEB",
        "meta_object_id": "1993-036JG",
        "meta_epoch": "2025-12-01T11:00:42.380640",
        "meta_mean_motion": 14.34058556,
        "meta_eccentricity": 0.00252993,
        "meta_inclination": 74.0386,
        "meta_ra_of_asc_node": 331.4739,
        "meta_arg_of_pericenter": 58.4332,
        "meta_mean_anomaly": 103.4745,
        "meta_ephemeris_type": 0,
        "meta_classification_type": "U",
        "meta_norad_cat_id": 34045,
        "meta_element_set_no": 999,
        "meta_rev_at_epoch": 87871,
        "meta_bstar": 0.00011262121,
        "meta_mean_motion_dot": 2.9e-06,
        "meta_mean_motion_ddot": 0,
        "tle_line1": "1 34045U 93036JG  25335.45882385  .00000290  00000+0  11262-3 0  9993",
        "tle_line2": "2 34045  74.0386 331.4739 0025299  58.4332 103.4745 14.34058556878714"
      },
      "geometry": {
        "type": "Point",
        "coordinates": [
          -22.861860973395917,
          23.494420859408923
        ]
      }
    },
    {
      "type": "Feature",
      "properties": {
        "norad_id": 34046,
        "name": "COSMOS 2251 DEB",
        "group": "cosmos-2251-debris",
        "lat": -74.01302598164682,
        "lon": -62.737651457424654,
        "alt_km": 791.9420743690271,
        "timestamp": "2025-12-02T06:27:53.405009+00:00",
        "meta_object_name": "COSMOS 2251 DEB",
        "meta_object_id": "1993-036JH",
        "meta_epoch": "2025-12-01T14:51:04.734720",
        "meta_mean_motion": 14.46322811,
        "meta_eccentricity": 0.00749829,
        "meta_inclination": 74.0405,
        "meta_ra_of_asc_node": 31.235,
        "meta_arg_of_pericenter": 117.9632,
        "meta_mean_anomaly": 4.9199,
        "meta_ephemeris_type": 0,
        "meta_classification_type": "U",
        "meta_norad_cat_id": 34046,
        "meta_element_set_no": 999,
        "meta_rev_at_epoch": 87665,
        "meta_bstar": 0.0011432962,
        "meta_mean_motion_dot": 4.221e-05,
        "meta_mean_motion_ddot": 0,
        "tle_line1": "1 34046U 93036JH  25335.61880480  .00004221  00000+0  11433-2 0  9993",
        "tle_line2": "2 34046  74.0405  31.2350 0074982 117.9632   4.9199 14.46322811876658"
      },
      "geometry": {
        "type": "Point",
        "coordinates": [
          -62.737651457424654,
          -74.01302598164682
        ]
      }
    },
    {
      "type": "Feature",
      "properties": {
        "norad_id": 34050,
        "name": "COSMOS 2251 DEB",
        "group": "cosmos-2251-debris",
        "lat": -55.03395293444852,
        "lon": -127.91514335622213,
        "alt_km": 1038.1641015482192,
        "timestamp": "2025-12-02T06:27:53.405019+00:00",
        "meta_object_name": "COSMOS 2251 DEB",
        "meta_object_id": "1993-036JM",
        "meta_epoch": "2025-12-01T14:25:41.202912",
        "meta_mean_motion": 13.96150245,
        "meta_eccentricity": 0.02147405,
        "meta_inclination": 74.0889,
        "meta_ra_of_asc_node": 29.1584,
        "meta_arg_of_pericenter": 96.3295,
        "meta_mean_anomaly": 23.423,
        "meta_ephemeris_type": 0,
        "meta_classification_type": "U",
        "meta_norad_cat_id": 34050,
        "meta_element_set_no": 999,
        "meta_rev_at_epoch": 85276,
        "meta_bstar": 0.00059561222,
        "meta_mean_motion_dot": 9.72e-06,
        "meta_mean_motion_ddot": 0,
        "tle_line1": "1 34050U 93036JM  25335.60117133  .00000972  00000+0  59561-3 0  9999",
        "tle_line2": "2 34050  74.0889  29.1584 0214740  96.3295  23.4230 13.96150245852769"
      },
      "geometry": {
        "type": "Point",
        "coordinates": [
          -127.91514335622213,
          -55.03395293444852
        ]
      }
    },
    {
      "type": "Feature",
      "properties": {
        "norad_id": 34053,
        "name": "COSMOS 2251 DEB",
        "group": "cosmos-2251-debris",
        "lat": -3.585452448501691,
        "lon": 80.08313634048928,
        "alt_km": 1290.7577212091528,
        "timestamp": "2025-12-02T06:27:53.405029+00:00",
        "meta_object_name": "COSMOS 2251 DEB",
        "meta_object_id": "1993-036JQ",
        "meta_epoch": "2025-12-01T04:40:45.791616",
        "meta_mean_motion": 13.49131108,
        "meta_eccentricity": 0.0421551,
        "meta_inclination": 73.8444,
        "meta_ra_of_asc_node": 260.7731,
        "meta_arg_of_pericenter": 51.2666,
        "meta_mean_anomaly": 312.5336,
        "meta_ephemeris_type": 0,
        "meta_classification_type": "U",
        "meta_norad_cat_id": 34053,
        "meta_element_set_no": 999,
        "meta_rev_at_epoch": 82528,
        "meta_bstar": 0.00092078,
        "meta_mean_motion_dot": 9.81e-06,
        "meta_mean_motion_ddot": 0,
        "tle_line1": "1 34053U 93036JQ  25335.19497444  .00000981  00000+0  92078-3 0  9992",
        "tle_line2": "2 34053  73.8444 260.7731 0421551  51.2666 312.5336 13.49131108825286"
      },
      "geometry": {
        "type": "Point",
        "coordinates": [
          80.08313634048928,
          -3.585452448501691
        ]
      }
    }
  ]
}